CCSDS_OMM_VERS,COMMENT,CREATION_DATE,ORIGINATOR,OBJECT_NAME,OBJECT_ID,CENTER_NAME,REF_FRAME,TIME_SYSTEM,MEAN_ELEMENT_THEORY,EPOCH,MEAN_MOTION,ECCENTRICITY,INCLINATION,RA_OF_ASC_NODE,ARG_OF_PERICENTER,MEAN_ANOMALY,EPHEMERIS_TYPE,CLASSIFICATION_TYPE,NORAD_CAT_ID,ELEMENT_SET_NO,REV_AT_EPOCH,BSTAR,MEAN_MOTION_DOT,MEAN_MOTION_DDOT,SEMIMAJOR_AXIS,PERIOD,APOAPSIS,PERIAPSIS,OBJECT_TYPE,RCS_SIZE,COUNTRY_CODE,LAUNCH_DATE,SITE,DECAY_DATE,FILE,GP_ID,TLE_LINE0,TLE_LINE1,TLE_LINE2
"2.0","GENERATED VIA SPACE-TRACK.ORG API","2009-04-30T07:55:44","18 SPCS","IRIDIUM 33","1997-051C","EARTH","TEME","UTC","SGP4","2009-04-30T09:59:32.385984","14.32474790","0.00076050","86.3830","88.3824","171.8168","188.3175","0","U","24946","999","60874","0.00000857110000","0.00000043","0.0000000000000","7161.612","100.525","788.923","778.030","PAYLOAD","LARGE","US","1997-09-14","TTMTR","","708174","71003650","0 IRIDIUM 33","1 24946U 97051C   09120.41634706  .00000043  00000-0  85711-5 0  9994","2 24946 086.3830 088.3824 0007605 171.8168 188.3175 14.32474790608747"
"2.0","GENERATED VIA SPACE-TRACK.ORG API","2009-05-01T08:13:48","18 SPCS","IRIDIUM 33","1997-051C","EARTH","TEME","UTC","SGP4","2009-04-30T09:59:32.385984","14.32474790","0.00076050","86.3830","88.3824","171.8168","188.3175","0","U","24946","999","60874","0.00000857110000","0.00000043","0.0000000000000","7161.612","100.525","788.923","778.030","PAYLOAD","LARGE","US","1997-09-14","TTMTR","","708591","71017661","0 IRIDIUM 33","1 24946U 97051C   09120.41634706  .00000043  00000-0  85711-5 0  9994","2 24946 086.3830 088.3824 0007605 171.8168 188.3175 14.32474790608747"
"2.0","GENERATED VIA SPACE-TRACK.ORG API","2009-04-30T07:55:26","18 SPCS","COSMOS 2251","1993-036A","EARTH","TEME","UTC","SGP4","2009-04-30T10:00:19.238112","14.32043618","0.00252560","74.0385","233.7043","353.2825","6.7981","0","U","22675","999","82885","-0.00000599080000","-0.00000042","0.0000000000000","7163.049","100.555","803.005","766.823","PAYLOAD","LARGE","CIS","1993-06-16","PKMTR","","708173","71003649","0 COSMOS 2251","1 22675U 93036A   09120.41688933 -.00000042  00000-0 -59908-5 0  9991","2 22675 074.0385 233.7043 0025256 353.2825 006.7981 14.32043618828855"
"2.0","GENERATED VIA SPACE-TRACK.ORG API","2009-05-01T08:14:47","18 SPCS","COSMOS 2251","1993-036A","EARTH","TEME","UTC","SGP4","2009-05-01T09:28:39.639071","14.32043767","0.00252840","74.0384","231.9213","351.2470","8.8252","0","U","22675","999","82899","-0.00000036107000","-0.00000027","0.0000000000000","7163.049","100.555","803.025","766.802","PAYLOAD","LARGE","CIS","1993-06-16","PKMTR","","708595","71017729","0 COSMOS 2251","1 22675U 93036A   09121.39490323 -.00000027  00000-0 -36107-6 0  9993","2 22675 074.0384 231.9213 0025284 351.2470 008.8252 14.32043767828992"
"2.0","GENERATED VIA SPACE-TRACK.ORG API","2009-05-01T08:14:54","18 SPCS","IRIDIUM 33","1997-051C","EARTH","TEME","UTC","SGP4","2009-05-01T11:08:22.343136","14.32474904","0.00076980","86.3830","87.9444","168.4704","191.6679","0","U","24946","999","60889","0.00001077900000","0.00000049","0.0000000000000","7161.611","100.525","788.989","777.963","PAYLOAD","LARGE","US","1997-09-14","TTMTR","","708596","71017730","0 IRIDIUM 33","1 24946U 97051C   09121.46414749  .00000049  00000-0  10779-4 0  9990","2 24946 086.3830 087.9444 0007698 168.4704 191.6679 14.32474904608899"
"2.0","GENERATED VIA SPACE-TRACK.ORG API","2009-05-02T07:51:45","18 SPCS","IRIDIUM 33","1997-051C","EARTH","TEME","UTC","SGP4","2009-05-01T11:08:22.343136","14.32474904","0.00076980","86.3830","87.9444","168.4704","191.6679","0","U","24946","999","60889","0.00001077900000","0.00000049","0.0000000000000","7161.611","100.525","788.989","777.963","PAYLOAD","LARGE","US","1997-09-14","TTMTR","","709017","71032456","0 IRIDIUM 33","1 24946U 97051C   09121.46414749  .00000049  00000-0  10779-4 0  9990","2 24946 086.3830 087.9444 0007698 168.4704 191.6679 14.32474904608899"
"2.0","GENERATED VIA SPACE-TRACK.ORG API","2009-05-03T11:35:05","18 SPCS","IRIDIUM 33","1997-051C","EARTH","TEME","UTC","SGP4","2009-05-01T11:08:22.343136","14.32474904","0.00076980","86.3830","87.9444","168.4704","191.6679","0","U","24946","999","60889","0.00001077900000","0.00000049","0.0000000000000","7161.611","100.525","788.989","777.963","PAYLOAD","LARGE","US","1997-09-14","TTMTR","","709546","71050316","0 IRIDIUM 33","1 24946U 97051C   09121.46414749  .00000049  00000-0  10779-4 0  9990","2 24946 086.3830 087.9444 0007698 168.4704 191.6679 14.32474904608899"
"2.0","GENERATED VIA SPACE-TRACK.ORG API","2009-05-04T07:56:55","18 SPCS","IRIDIUM 33","1997-051C","EARTH","TEME","UTC","SGP4","2009-05-04T09:33:06.275520","14.32475571","0.00080960","86.3830","86.7182","159.0431","201.1156","0","U","24946","999","60931","0.00002649800000","0.00000091","0.0000000000000","7161.609","100.525","789.272","777.676","PAYLOAD","LARGE","US","1997-09-14","TTMTR","","709792","71062596","0 IRIDIUM 33","1 24946U 97051C   09124.39798930  .00000091  00000-0  26498-4 0  9994","2 24946 086.3830 086.7182 0008096 159.0431 201.1156 14.32475571609317"
"2.0","GENERATED VIA SPACE-TRACK.ORG API","2009-05-04T08:09:36","18 SPCS","IRIDIUM 33","1997-051C","EARTH","TEME","UTC","SGP4","2009-05-04T09:33:06.275520","14.32475571","0.00080960","86.3830","86.7182","159.0431","201.1156","0","U","24946","999","60931","0.00002649800000","0.00000091","0.0000000000000","7161.609","100.525","789.272","777.676","PAYLOAD","LARGE","US","1997-09-14","TTMTR","","709797","71062705","0 IRIDIUM 33","1 24946U 97051C   09124.39798930  .00000091  00000-0  26498-4 0  9994","2 24946 086.3830 086.7182 0008096 159.0431 201.1156 14.32475571609317"
"2.0","GENERATED VIA SPACE-TRACK.ORG API","2009-05-04T07:56:37","18 SPCS","COSMOS 2251","1993-036A","EARTH","TEME","UTC","SGP4","2009-05-04T09:34:16.520448","14.32044055","0.00252490","74.0385","226.4431","344.8949","15.1507","0","U","22675","999","82942","0.00000396300000","-0.00000015","0.0000000000000","7163.048","100.555","802.999","766.827","PAYLOAD","LARGE","CIS","1993-06-16","PKMTR","","709791","71062595","0 COSMOS 2251","1 22675U 93036A   09124.39880232 -.00000015  00000-0  39630-5 0  9997","2 22675 074.0385 226.4431 0025249 344.8949 015.1507 14.32044055829428"
"2.0","GENERATED VIA SPACE-TRACK.ORG API","2009-05-05T07:53:55","18 SPCS","IRIDIUM 33","1997-051C","EARTH","TEME","UTC","SGP4","2009-05-05T10:41:56.119487","14.32475693","0.00082030","86.3831","86.2801","155.7855","204.3728","0","U","24946","999","60946","0.00002610300000","0.00000090","0.0000000000000","7161.609","100.525","789.348","777.599","PAYLOAD","LARGE","US","1997-09-14","TTMTR","","710266","71077244","0 IRIDIUM 33","1 24946U 97051C   09125.44578842  .00000090  00000-0  26103-4 0  9991","2 24946 086.3831 086.2801 0008203 155.7855 204.3728 14.32475693609465"
"2.0","GENERATED VIA SPACE-TRACK.ORG API","2009-05-05T10:08:33","18 SPCS","IRIDIUM 33","1997-051C","EARTH","TEME","UTC","SGP4","2009-05-05T10:41:56.119487","14.32475693","0.00082030","86.3831","86.2801","155.7855","204.3728","0","U","24946","999","60946","0.00002610300000","0.00000090","0.0000000000000","7161.609","100.525","789.348","777.599","PAYLOAD","LARGE","US","1997-09-14","TTMTR","","710403","71080168","0 IRIDIUM 33","1 24946U 97051C   09125.44578842  .00000090  00000-0  26103-4 0  9991","2 24946 086.3831 086.2801 0008203 155.7855 204.3728 14.32475693609465"
"2.0","GENERATED VIA SPACE-TRACK.ORG API","2009-05-06T07:46:35","18 SPCS","IRIDIUM 33","1997-051C","EARTH","TEME","UTC","SGP4","2009-05-05T10:41:56.119487","14.32475693","0.00082030","86.3831","86.2801","155.7855","204.3728","0","U","24946","999","60946","0.00002610300000","0.00000090","0.0000000000000","7161.609","100.525","789.348","777.599","PAYLOAD","LARGE","US","1997-09-14","TTMTR","","710727","71092055","0 IRIDIUM 33","1 24946U 97051C   09125.44578842  .00000090  00000-0  26103-4 0  9991","2 24946 086.3831 086.2801 0008203 155.7855 204.3728 14.32475693609465"
"2.0","GENERATED VIA SPACE-TRACK.ORG API","2009-05-05T07:53:16","18 SPCS","COSMOS 2251","1993-036A","EARTH","TEME","UTC","SGP4","2009-05-05T10:43:12.532511","14.32044197","0.00252330","74.0383","224.5322","342.6720","17.3577","0","U","22675","999","82957","0.00000963330000","0.00000000","0.0000000000000","7163.047","100.555","802.987","766.838","PAYLOAD","LARGE","CIS","1993-06-16","PKMTR","","710265","71077243","0 COSMOS 2251","1 22675U 93036A   09125.44667283 -.00000000  00000-0  96333-5 0  9990","2 22675 074.0383 224.5322 0025233 342.6720 017.3577 14.32044197829574"
"2.0","GENERATED VIA SPACE-TRACK.ORG API","2009-05-06T07:56:37","18 SPCS","COSMOS 2251","1993-036A","EARTH","TEME","UTC","SGP4","2009-05-06T08:30:57.141791","14.32044260","0.00252050","74.0381","222.8762","340.7276","19.2926","0","U","22675","999","82970","0.00000997020000","0.00000001","0.0000000000000","7163.047","100.555","802.966","766.857","PAYLOAD","LARGE","CIS","1993-06-16","PKMTR","","710735","71092128","0 COSMOS 2251","1 22675U 93036A   09126.35482803  .00000001  00000-0  99702-5 0  9997","2 22675 074.0381 222.8762 0025205 340.7276 019.2926 14.32044260829700"
"2.0","GENERATED VIA SPACE-TRACK.ORG API","2009-05-06T07:55:57","18 SPCS","IRIDIUM 33","1997-051C","EARTH","TEME","UTC","SGP4","2009-05-06T10:10:10.723872","14.32475911","0.00083820","86.3830","85.8712","152.8439","207.3206","0","U","24946","999","60960","0.00002947400000","0.00000100","0.0000000000000","7161.608","100.525","789.476","777.470","PAYLOAD","LARGE","US","1997-09-14","TTMTR","","710734","71092127","0 IRIDIUM 33","1 24946U 97051C   09126.42373523  .00000100  00000-0  29474-4 0  9995","2 24946 086.3830 085.8712 0008382 152.8439 207.3206 14.32475911609607"
